{
  "type": "FeatureCollection",
  "metadata": {
    "title": "Simplified Manhattan boundary",
    "note": "A lightweight contextual outline for the research prototype; not for parcel-level analysis."
  },
  "features": [
    {
      "type": "Feature",
      "properties": {
        "name": "Manhattan",
        "geometry_status": "simplified"
      },
      "geometry": {
        "type": "Polygon",
        "coordinates": [
          [
            [
              -73.9338,
              40.882
            ],
            [
              -73.923,
              40.878
            ],
            [
              -73.921,
              40.868
            ],
            [
              -73.93,
              40.846
            ],
            [
              -73.934,
              40.828
            ],
            [
              -73.942,
              40.807
            ],
            [
              -73.952,
              40.787
            ],
            [
              -73.962,
              40.77
            ],
            [
              -73.972,
              40.75
            ],
            [
              -73.984,
              40.729
            ],
            [
              -73.997,
              40.708
            ],
            [
              -74.011,
              40.7005
            ],
            [
              -74.019,
              40.706
            ],
            [
              -74.015,
              40.719
            ],
            [
              -74.008,
              40.735
            ],
            [
              -74,
              40.754
            ],
            [
              -73.991,
              40.773
            ],
            [
              -73.982,
              40.793
            ],
            [
              -73.973,
              40.812
            ],
            [
              -73.962,
              40.833
            ],
            [
              -73.95,
              40.854
            ],
            [
              -73.943,
              40.872
            ],
            [
              -73.9338,
              40.882
            ]
          ]
        ]
      }
    }
  ]
}
